*******************************************************************************
 Revised: Dec 17, 2009              Jupiter                                 599
 
 PHYSICAL DATA (updated 2009-Jan-28):
  Mass (10^24 kg)       =  1898.13+-.19   Density (g/cm^3)       =  1.326
  Equat. radius (1 bar) = 71492+-4 km     Polar radius (km)      = 66854+-10
  Volumetric mean radius= 69911+-6 km     Flattening             =  0.06487

  Rotation period       = 9h 55m 29.685s  Rot. rate(10^-4 rad/s) =  1.75865
  m = w^2a^3/GM         =  0.089195       Hydrostatic flat., fh  =  0.06509
  Inferred rot. period  =  9.894+-0.02 hr ks = 3*J2/m            =  0.494
  Mom. of inert. I/MRo^2=  0.254          I/MRo^2 (upper bound)  =  0.267 
  Rocky core mass (Mc/M)=  0.0261         Y factor (He/H ratio)  =  0.18+-0.04

  GM (km^3/s^2)         = 126,686,511     GM 1-sigma (km^3/s^2)  = +-100
  Equ. grav, ge (m/s^2) = 24.79           Pol. grav, gp (m/s^2)  = 28.34

  Geometric albedo      =  0.52           Visual magnitude V(1,0)= -9.40
  Vis. mag. (opposition)= -2.70           Obliquity to orbit     =  3.12 deg
  Sidereal orbit period = 11.862615 yr    Sidereal orbit period  = 4332.820 d
  Mean daily motion     = 0.0831294 deg/d Mean orbit velocity    = 13.0697 km/s

  Atmos. temp. (1 bar)  = 165+-5 K        Heat flow/mass (x10^7) = 15 erg/gm*s
  Planetary Solar Const =  50.5 W/m^2     Dipole tilt/offset     = 9.6deg/0.1Rp 
  Escape velocity (km/s)=  59.5           Mag.dip.mom(gauss-Rp^3)= 4.2 
  Aroche(ice)/Rp        =  2.76           Hill's sphere rad. Rp  = 740
*******************************************************************************
 
 
*******************************************************************************
Ephemeris / WWW_USER Sat May  7 04:45:13 2011  Pasadena, USA     / Horizons    
*******************************************************************************
Target body name: Jupiter (599)                   {source: JUP230}
Center body name: Earth (399)                     {source: DE405}
Center-site name: GEOCENTRIC
*******************************************************************************
Start time      : A.D. 2011-Apr-18 00:00:00.0000 UT      
Stop  time      : A.D. 2020-May-18 00:00:00.0000 UT      
Step-size       : 1440 minutes
*******************************************************************************
Target pole/equ : IAU_JUPITER                     {East-longitude -}
Target radii    : 71492.0 x 71492.0 x 66854.0 km  {Equator, meridian, pole}    
Center geodetic : 0.00000000,0.00000000,0.0000000 {E-lon(deg),Lat(deg),Alt(km)}
Center cylindric: 0.00000000,0.00000000,0.0000000 {E-lon(deg),Dxy(km),Dz(km)}
Center pole/equ : High-precision EOP model        {East-longitude +}
Center radii    : 6378.1 x 6378.1 x 6356.8 km     {Equator, meridian, pole}    
Target primary  : Sun                             {source: DE405+DE406}
Interfering body: MOON (Req= 1737.400) km         {source: DE405}
Deflecting body : Sun, EARTH                      {source: DE405}
Deflecting GMs  : 1.3271E+11, 3.9860E+05 km^3/s^2                              
Atmos refraction: NO (AIRLESS)
RA format       : HMS
Time format     : CAL 
EOP file        : eop.110506.p110728                                           
EOP coverage    : DATA-BASED 1962-JAN-20 TO 2011-MAY-06. PREDICTS-> 2011-JUL-27
Units conversion: 1 AU= 149597870.691 km, c= 299792.458 km/s, 1 day= 86400.0 s 
Table cut-offs 1: Elevation (-90.0deg=NO ),Airmass (>38.000=NO), Daylight (NO )
Table cut-offs 2: Solar Elongation (  0.0,180.0=NO )                           
*************************************************************************************************
 Date__(UT)__HR:MN     R.A._(ICRF/J2000.0)_DEC R.A.__(a-apparent)__DEC  APmag  S-brt   Illu% Cnst
*************************************************************************************************
$$SOE
 2019-Dec-24 00:00     18 19 50.85 -23 15 25.5 18 21 00.95 -23 14 49.3  -1.84   5.41  99.998  Sgr
 2019-Dec-25 00:00     18 20 50.99 -23 15 02.0 18 22 01.10 -23 14 24.0  -1.84   5.40  99.999  Sgr
 2019-Dec-26 00:00     18 21 51.14 -23 14 37.0 18 23 01.27 -23 13 57.3  -1.84   5.36  99.999  Sgr
 2019-Dec-27 00:00     18 22 51.30 -23 14 10.5 18 24 01.47 -23 13 29.1  -1.84   5.33 100.000  Sgr
 2019-Dec-28 00:00     18 23 51.47 -23 13 42.6 18 25 01.60 -23 12 59.6  -1.84   5.34 100.000  Sgr
 2019-Dec-29 00:00     18 24 51.63 -23 13 13.2 18 26 01.74 -23 12 28.6  -1.84   5.38 100.000  Sgr
 2019-Dec-30 00:00     18 25 51.79 -23 12 42.4 18 27 01.92 -23 11 56.2  -1.84   5.40  99.999  Sgr
 2019-Dec-31 00:00     18 26 51.93 -23 12 10.2 18 28 02.07 -23 11 22.3  -1.84   5.40  99.998  Sgr
 2020-Jan-01 00:00     18 27 52.05 -23 11 36.5 18 29 02.19 -23 10 47.0  -1.84   5.37  99.997  Sgr
 2020-Jan-02 00:00     18 28 52.14 -23 11 01.3 18 30 02.27 -23 10 10.2  -1.84   5.34  99.995  Sgr
 2020-Jan-03 00:00     18 29 52.20 -23 10 24.8 18 31 02.32 -23 09 32.0  -1.84   5.34  99.993  Sgr
 2020-Jan-04 00:00     18 30 52.21 -23 09 46.8 18 32 02.33 -23 08 52.4  -1.84   5.38  99.991  Sgr
 2020-Jan-05 00:00     18 31 52.17 -23 09 07.5 18 33 02.30 -23 08 11.3  -1.84   5.41  99.989  Sgr
 2020-Jan-06 00:00     18 32 52.09 -23 08 26.7 18 34 02.21 -23 07 28.9  -1.84   5.40  99.986  Sgr
 2020-Jan-07 00:00     18 33 51.94 -23 07 44.5 18 35 02.07 -23 06 45.0  -1.84   5.37  99.982  Sgr
 2020-Jan-08 00:00     18 34 51.73 -23 07 01.0 18 36 01.86 -23 05 59.8  -1.84   5.34  99.979  Sgr
 2020-Jan-09 00:00     18 35 51.44 -23 06 16.1 18 37 01.58 -23 05 13.2  -1.84   5.34  99.975  Sgr
 2020-Jan-10 00:00     18 36 51.08 -23 05 29.9 18 38 01.23 -23 04 25.3  -1.84   5.38  99.971  Sgr
 2020-Jan-11 00:00     18 37 50.64 -23 04 42.3 18 39 00.80 -23 03 36.0  -1.84   5.41  99.966  Sgr
 2020-Jan-12 00:00     18 38 50.11 -23 03 53.3 18 40 00.27 -23 02 45.5  -1.84   5.41  99.961  Sgr
 2020-Jan-13 00:00     18 39 49.48 -23 03 03.1 18 40 59.66 -23 01 53.7  -1.84   5.38  99.956  Sgr
 2020-Jan-14 00:00     18 40 48.76 -23 02 11.5 18 41 58.94 -23 01 00.5  -1.85   5.35  99.951  Sgr
 2020-Jan-15 00:00     18 41 47.94 -23 01 18.7 18 42 58.11 -23 00 06.1  -1.85   5.35  99.945  Sgr
 2020-Jan-16 00:00     18 42 47.01 -23 00 24.6 18 43 57.17 -22 59 10.4  -1.85   5.38  99.939  Sgr
 2020-Jan-17 00:00     18 43 45.96 -22 59 29.2 18 44 56.11 -22 58 13.4  -1.85   5.41  99.933  Sgr
 2020-Jan-18 00:00     18 44 44.79 -22 58 32.6 18 45 54.94 -22 57 15.1  -1.85   5.41  99.926  Sgr
 2020-Jan-19 00:00     18 45 43.49 -22 57 34.8 18 46 53.64 -22 56 15.6  -1.85   5.38  99.919  Sgr
 2020-Jan-20 00:00     18 46 42.06 -22 56 35.7 18 47 52.21 -22 55 14.9  -1.85   5.35  99.912  Sgr
 2020-Jan-21 00:00     18 47 40.49 -22 55 35.4 18 48 50.64 -22 54 13.0  -1.85   5.35  99.904  Sgr
 2020-Jan-22 00:00     18 48 38.77 -22 54 34.0 18 49 48.92 -22 53 10.0  -1.85   5.38  99.896  Sgr
 2020-Jan-23 00:00     18 49 36.89 -22 53 31.4 18 50 47.05 -22 52 05.8  -1.86   5.41  99.888  Sgr
 2020-Jan-24 00:00     18 50 34.85 -22 52 27.7 18 51 45.02 -22 51 00.5  -1.86   5.42  99.880  Sgr
 2020-Jan-25 00:00     18 51 32.64 -22 51 22.8 18 52 42.81 -22 49 54.0  -1.86   5.39  99.871  Sgr
 2020-Jan-26 00:00     18 52 30.25 -22 50 16.9 18 53 40.43 -22 48 46.5  -1.86   5.35  99.862  Sgr
 2020-Jan-27 00:00     18 53 27.68 -22 49 09.8 18 54 37.86 -22 47 38.0  -1.86   5.35  99.853  Sgr
 2020-Jan-28 00:00     18 54 24.92 -22 48 01.8 18 55 35.09 -22 46 28.4  -1.86   5.38  99.844  Sgr
 2020-Jan-29 00:00     18 55 21.97 -22 46 52.6 18 56 32.13 -22 45 17.7  -1.87   5.41  99.834  Sgr
 2020-Jan-30 00:00     18 56 18.80 -22 45 42.5 18 57 28.95 -22 44 06.0  -1.87   5.42  99.824  Sgr
 2020-Jan-31 00:00     18 57 15.43 -22 44 31.4 18 58 25.57 -22 42 53.3  -1.87   5.39  99.814  Sgr
 2020-Feb-01 00:00     18 58 11.84 -22 43 19.3 18 59 21.97 -22 41 39.7  -1.87   5.36  99.804  Sgr
 2020-Feb-02 00:00     18 59 08.03 -22 42 06.2 19 00 18.16 -22 40 25.1  -1.88   5.35  99.794  Sgr
 2020-Feb-03 00:00     19 00 03.99 -22 40 52.3 19 01 14.11 -22 39 09.6  -1.88   5.38  99.783  Sgr
 2020-Feb-04 00:00     19 00 59.71 -22 39 37.4 19 02 09.84 -22 37 53.2  -1.88   5.41  99.772  Sgr
 2020-Feb-05 00:00     19 01 55.20 -22 38 21.7 19 03 05.33 -22 36 35.9  -1.88   5.42  99.761  Sgr
 2020-Feb-06 00:00     19 02 50.44 -22 37 05.2 19 04 00.57 -22 35 17.8  -1.89   5.40  99.750  Sgr
 2020-Feb-07 00:00     19 03 45.42 -22 35 47.8 19 04 55.56 -22 33 58.9  -1.89   5.36  99.738  Sgr
 2020-Feb-08 00:00     19 04 40.15 -22 34 29.7 19 05 50.30 -22 32 39.3  -1.89   5.35  99.726  Sgr
 2020-Feb-09 00:00     19 05 34.62 -22 33 10.7 19 06 44.77 -22 31 19.0  -1.89   5.38  99.715  Sgr
 2020-Feb-10 00:00     19 06 28.82 -22 31 51.1 19 07 38.97 -22 29 57.9  -1.90   5.41  99.703  Sgr
 2020-Feb-11 00:00     19 07 22.75 -22 30 30.7 19 08 32.89 -22 28 36.1  -1.90   5.42  99.691  Sgr
 2020-Feb-12 00:00     19 08 16.40 -22 29 09.7 19 09 26.53 -22 27 13.7  -1.90   5.40  99.678  Sgr
 2020-Feb-13 00:00     19 09 09.77 -22 27 48.0 19 10 19.89 -22 25 50.5  -1.91   5.37  99.666  Sgr
 2020-Feb-14 00:00     19 10 02.84 -22 26 25.8 19 11 12.95 -22 24 26.8  -1.91   5.35  99.654  Sgr
 2020-Feb-15 00:00     19 10 55.61 -22 25 02.9 19 12 05.72 -22 23 02.4  -1.91   5.38  99.641  Sgr
 2020-Feb-16 00:00     19 11 48.09 -22 23 39.4 19 12 58.19 -22 21 37.5  -1.92   5.41  99.628  Sgr
 2020-Feb-17 00:00     19 12 40.25 -22 22 15.5 19 13 50.35 -22 20 12.1  -1.92   5.43  99.615  Sgr
 2020-Feb-18 00:00     19 13 32.09 -22 20 51.0 19 14 42.20 -22 18 46.2  -1.92   5.41  99.602  Sgr
 2020-Feb-19 00:00     19 14 23.61 -22 19 26.1 19 15 33.72 -22 17 19.9  -1.93   5.37  99.590  Sgr
 2020-Feb-20 00:00     19 15 14.80 -22 18 00.7 19 16 24.91 -22 15 53.1  -1.93   5.36  99.576  Sgr
 2020-Feb-21 00:00     19 16 05.64 -22 16 35.0 19 17 15.76 -22 14 26.0  -1.93   5.38  99.563  Sgr
 2020-Feb-22 00:00     19 16 56.14 -22 15 08.9 19 18 06.26 -22 12 58.5  -1.94   5.41  99.550  Sgr
